ONEWEB-0020             
1 45133U 20008C   24059.95311940 -.00000499  00000+0 -14647-2 0  9995
2 45133  87.8948 202.9802 0001421 106.5759 253.5524 13.10373995199215
ONEWEB-0021             
1 45134U 20008D   24060.42586973 -.00000491  00000+0 -14435-2 0  9997
2 45134  87.8958 202.8968 0001605 101.6428 258.4880 13.10375120199673
ONEWEB-0022             
1 45135U 20008E   24060.14343800  .00000573  00000+0  16041-2 0  9991
2 45135  87.8959 202.9703 0001295 103.1588 256.9684 13.10400088199219
ONEWEB-0023             
1 45136U 20008F   24060.43887907  .00000082  00000+0  19834-3 0  9994
2 45136  87.8959 202.8853 0001891 114.0375 246.0951 13.10376753198983
ONEWEB-0024             
1 45137U 20008G   24059.87512512 -.00000501  00000+0 -14702-2 0  9994
2 45137  87.8940 202.9962 0001618  98.4677 261.6633 13.10371220198325
ONEWEB-0025             
1 45138U 20008H   24059.89299205 -.00000453  00000+0 -13344-2 0  9995
2 45138  87.8946 202.9917 0001824 101.3372 258.7960 13.10371986198652
ONEWEB-0026             
1 45139U 20008J   24060.35087719 -.00107834  00000+0 -30919+0 0  9999
2 45139  87.9037 187.8206 0002314  93.2585 266.8807 13.11118876202044
ONEWEB-0028             
1 45140U 20008K   24060.38263092 -.00000495  00000+0 -14337-2 0  9998
2 45140  87.9024 187.8573 0002311 101.2827 258.8561 13.11417172198688
